[{"OBJECT_NAME":"CORVUS BC2","OBJECT_ID":"2017-042X","EPOCH":"2026-03-09T22:14:39.055488","MEAN_MOTION":15.05610206,"ECCENTRICITY":0.00145863,"INCLINATION":97.3955,"RA_OF_ASC_NODE":234.2405,"ARG_OF_PERICENTER":92.385,"MEAN_ANOMALY":267.9047,"EPHEMERIS_TYPE":0,"CLASSIFICATION_TYPE":"U","NORAD_CAT_ID":42846,"ELEMENT_SET_NO":999,"REV_AT_EPOCH":47212,"BSTAR":0.00034626467,"MEAN_MOTION_DOT":4.947e-5,"MEAN_MOTION_DDOT":0},{"OBJECT_NAME":"STARLINK-6373","OBJECT_ID":"2023-099T","EPOCH":"2026-03-09T12:38:04.332192","MEAN_MOTION":15.02535507,"ECCENTRICITY":0.00013409,"INCLINATION":43.0023,"RA_OF_ASC_NODE":249.7183,"ARG_OF_PERICENTER":262.3413,"MEAN_ANOMALY":97.7277,"EPHEMERIS_TYPE":0,"CLASSIFICATION_TYPE":"U","NORAD_CAT_ID":57345,"ELEMENT_SET_NO":999,"REV_AT_EPOCH":14609,"BSTAR":1.059264e-5,"MEAN_MOTION_DOT":-6.1e-7,"MEAN_MOTION_DDOT":0}]
